STARLINK-35286          
1 65803U 25218N   26097.51537183  .00005163  00000+0  36166-3 0  9996
2 65803  97.6026 321.3088 0002121  76.5291 283.6172 15.05658574 29304
STARLINK-35266          
1 65804U 25218P   26097.50983504  .00005419  00000+0  37941-3 0  9994
2 65804  97.6033 321.3161 0002013  83.3408 276.8048 15.05657740 29301
STARLINK-35273          
1 65805U 25218Q   26097.90581492  .00003320  00000+0  23417-3 0  9991
2 65805  97.6039 321.7126 0001961  84.2051 275.9400 15.05656193 29367
STARLINK-35047          
1 65806U 25218R   26097.49322214  .00004746  00000+0  33284-3 0  9997
2 65806  97.6033 321.3392 0002407  82.2236 277.9264 15.05658937 29304
STARLINK-35285          
1 65807U 25218S   26097.49876025  .00005663  00000+0  39627-3 0  9998
2 65807  97.6038 321.3313 0002055  87.9902 272.1560 15.05658428 29305
STARLINK-34580          
1 65808U 25218T   26097.55693289  .00006886  00000+0  48094-3 0  9991
2 65808  97.6030 321.4087 0002231  86.7149 273.4333 15.05649755 29319
STARLINK-35289          
1 65809U 25218U   26097.88090018  .00002567  00000+0  18204-3 0  9991
2 65809  97.6020 321.7476 0002677  87.7529 272.4004 15.05654972 29367
STARLINK-35268          
1 65810U 25218V   26097.87259309 -.00004184  00000+0 -28579-3 0  9997
2 65810  97.6047 321.7588 0001947  96.7530 263.3918 15.05662837 29365
STARLINK-35224          
1 65811U 25218W   26097.94184057  .00005054  00000+0  35418-3 0  9998
2 65811  97.6025 321.8206 0003175  68.0827 292.0737 15.05656113 29375
STARLINK-35271          
1 65812U 25218X   26097.53198757 -.00009790  00000+0 -67504-3 0  9990
2 65812  97.6025 321.4437 0003025  87.1003 273.0569 15.05656485 29318
STARLINK-35215          
1 65813U 25218Y   26097.85874718  .00002939  00000+0  20774-3 0  9998
2 65813  97.6019 321.7786 0001929  88.7128 271.4320 15.05657118 29364
STARLINK-35157          
1 65814U 25218Z   26097.59016089 -.00001051  00000+0 -68679-4 0  9992
2 65814  97.6017 321.5201 0002542  84.2247 275.9270 15.05636113 29329
FENGYUN 3H              
1 65815U 25219A   26097.92738358  .00000105  00000+0  69779-4 0  9990
2 65815  98.6722  40.0810 0000683  74.4399 285.6853 14.19940812 27417
HULIANWANG DIGUI-82     
1 65817U 25220A   26097.90437306  .00000046  00000+0  72118-4 0  9996
2 65817  86.4934  67.5861 0002393  74.7200 285.4199 13.24424194 25619
HULIANWANG DIGUI-83     
1 65818U 25220B   26097.89688956  .00000034  00000+0  44551-4 0  9991
2 65818  86.4957  67.6263 0002382  74.8519 285.2878 13.24423277 25617
HULIANWANG DIGUI-84     
1 65819U 25220C   26097.96484232  .00000042  00000+0  64712-4 0  9991
2 65819  86.4894  67.4740 0002352  74.4994 285.6400 13.24423799 25621
HULIANWANG DIGUI-85     
1 65820U 25220D   26097.95722924  .00000054  00000+0  90913-4 0  9990
2 65820  86.4955  67.5904 0002390  75.1884 284.9515 13.24424348 25622
HULIANWANG DIGUI-86     
1 65821U 25220E   26097.94983079  .00000059  00000+0  10261-3 0  9992
2 65821  86.4934  67.5445 0002142  78.6474 281.4900 13.24340083 25621
STARLINK-35392          
1 65823U 25221A   26097.91862125  .00025024  00000+0  85397-3 0  9991
2 65823  53.1619 312.9239 0001076  71.3955 288.7162 15.30207139 30552
STARLINK-35281          
1 65824U 25221B   26097.85647271  .00027370  00000+0  93257-3 0  9998
2 65824  53.1611 313.2472 0001000  85.1334 274.9781 15.30208314 30548
STARLINK-35397          
1 65825U 25221C   26097.89120561  .00019249  00000+0  66033-3 0  9999
2 65825  53.1582 312.7532 0000891  67.4496 292.6599 15.30201139 30559
STARLINK-35381          
1 65826U 25221D   26097.87744354  .00021598  00000+0  73808-3 0  9998
2 65826  53.1589 312.6660 0001079  74.4903 285.6217 15.30249816 30551
STARLINK-35393          
1 65827U 25221E   26097.90595698  .00014021  00000+0  48461-3 0  9998
2 65827  53.1600 312.8420 0000859  83.7119 276.3980 15.30199820 30552
STARLINK-35396          
1 65828U 25221F   26097.88801673  .00022581  00000+0  77219-3 0  9992
2 65828  53.1584 312.7304 0000808  91.4072 268.7021 15.30200713 30557
STARLINK-35244          
1 65829U 25221G   26097.91810086  .00018150  00000+0  62338-3 0  9998
2 65829  53.1606 315.0901 0001049  90.5115 269.6006 15.30202562 30487
STARLINK-35368          
1 65830U 25221H   26097.86174780  .00022376  00000+0  76530-3 0  9992
2 65830  53.1624 313.2791 0000443  68.1202 291.9846 15.30200754 30505
STARLINK-35337          
1 65831U 25221J   26097.88168587  .00030071  00000+0  10233-2 0  9991
2 65831  53.1583 312.6932 0000829  77.6205 282.4889 15.30200468 30555
STARLINK-35277          
1 65832U 25221K   26097.88485123  .00008366  00000+0  29418-3 0  9998
2 65832  53.1581 312.7122 0000899  72.8896 287.2203 15.30208604 30559
STARLINK-35345          
1 65833U 25221L   26097.87429613  .00016084  00000+0  55409-3 0  9995
2 65833  53.1596 312.6450 0000450 307.9918  52.1042 15.30194481 30556
STARLINK-35320          
1 65834U 25221M   26097.91439947  .00012627  00000+0  43774-3 0  9993
2 65834  53.1618 312.8927 0001022  96.2096 263.9022 15.30198198 29203
STARLINK-35349          
1 65835U 25221N   26097.85541576  .00020312  00000+0  69597-3 0  9990
2 65835  53.1615 313.2357 0001013 116.3928 243.7177 15.30203846 29193
STARLINK-35356          
1 65836U 25221P   26097.87113247  .00025126  00000+0  85751-3 0  9991
2 65836  53.1595 312.6249 0000851  64.6351 295.4738 15.30202990 29206
STARLINK-35314          
1 65837U 25221Q   26097.89963515  .00018093  00000+0  62103-3 0  9996
2 65837  53.1595 312.8029 0000863  56.6246 303.4837 15.30224667 29207
STARLINK-35324          
1 65838U 25221R   26097.85858225  .00014761  00000+0  50954-3 0  9993
2 65838  53.1622 313.2564 0000680  93.0155 267.0924 15.30198364 29193
STARLINK-35102          
1 65839U 25221S   26097.89645811  .00016073  00000+0  55356-3 0  9992
2 65839  53.1590 312.7831 0000730  90.0457 270.0627 15.30202389 29206
STARLINK-35364          
1 65840U 25221T   26097.89329410  .00025263  00000+0  86207-3 0  9998
2 65840  53.1583 312.7625 0000926  95.7967 264.3139 15.30204602 29200
STARLINK-35298          
1 65842U 25221V   26097.89012679  .00013988  00000+0  48347-3 0  9990
2 65842  53.1582 312.7425 0000931  75.3210 284.7894 15.30202092 29205
STARLINK-35301          
1 65843U 25221W   26097.88062879  .00027526  00000+0  93827-3 0  9993
2 65843  53.1581 312.6824 0000880  83.1630 276.9471 15.30192202 29208
STARLINK-35148          
1 65844U 25221X   26097.90279004  .00023280  00000+0  79568-3 0  9996
2 65844  53.1603 312.8181 0000990  71.6489 288.4619 15.30198977 29205
STARLINK-35302          
1 65845U 25221Y   26097.88379596  .00021689  00000+0  74219-3 0  9990
2 65845  53.1581 312.7004 0000840  74.8187 285.2906 15.30204210 29200
STARLINK-35290          
1 65846U 25221Z   26097.87640685  .00025533  00000+0  87130-3 0  9998
2 65846  53.1586 312.6560 0000739 104.9857 255.1226 15.30197260 29205
STARLINK-35262          
1 65847U 25221AA  26097.86384163  .00019814  00000+0  67853-3 0  9999
2 65847  53.1612 313.2874 0001167  94.1566 265.9568 15.30237997 30543
STARLINK-35308          
1 65848U 25221AB  26097.87851994  .00023131  00000+0  79090-3 0  9995
2 65848  53.1582 312.6679 0001054  86.8146 273.2975 15.30190897 30555
STARLINK-35231          
1 65849U 25221AC  26097.86702148  .00021882  00000+0  74852-3 0  9993
2 65849  53.1602 313.3084 0000252 147.0848 213.0169 15.30209983 30548
STARLINK-35252          
1 65850U 25221AD  26097.86069325  .00017269  00000+0  59387-3 0  9998
2 65850  53.1624 313.2676 0000650  78.6035 281.5039 15.30197022 30545
SHIYAN-30 01            
1 65851U 25222A   26097.95393989  .00002298  00000+0  22107-3 0  9992
2 65851  34.9893 322.8866 0001722 164.5216 195.5542 14.92717803 28547
SHIYAN-30 02            
1 65852U 25222B   26097.95301067  .00002284  00000+0  21941-3 0  9999
2 65852  34.9979 322.9931 0001968 186.5691 173.4988 14.92767827 28528
STARLINK-35208          
1 65854U 25223A   26097.45351027  .00020746  00000+0  71094-3 0  9995
2 65854  53.1568 160.2807 0000687 296.7663  63.3267 15.30185900 28618
STARLINK-35200          
1 65855U 25223B   26097.54943181  .00017125  00000+0  58892-3 0  9992
2 65855  53.1580 160.1658 0001479  85.4730 274.6439 15.30203187 28621
STARLINK-35459          
1 65856U 25223C   26097.89077628  .00021766  00000+0  74486-3 0  9998
2 65856  53.1608 158.7433 0001270  80.6609 279.4536 15.30200412 28672
STARLINK-35489          
1 65857U 25223D   26097.44729241  .00024093  00000+0  82183-3 0  9994
2 65857  53.1603 160.9514 0001331  82.0243 278.0909 15.30243827 28600
STARLINK-35199          
1 65858U 25223E   26097.46933981  .00001657  00000+0  68060-4 0  9995
2 65858  53.1571 160.3764 0001321  72.8610 287.2535 15.30193820 28615
STARLINK-35408          
1 65859U 25223F   26097.44623624  .00021259  00000+0  72799-3 0  9997
2 65859  53.1586 160.9418 0001417  85.2314 274.8849 15.30193872 28605
STARLINK-35303          
1 65860U 25223G   26097.88444414  .00019396  00000+0  66540-3 0  9991
2 65860  53.1581 158.7017 0001183  80.9317 279.1817 15.30194644 28675
STARLINK-35258          
1 65861U 25223H   26097.56209198  .00010677  00000+0  37215-3 0  9995
2 65861  53.1596 160.2420 0001244  68.7950 291.3183 15.30195744 28622
STARLINK-35386          
1 65862U 25223J   26097.44517987  .00027651  00000+0  94103-3 0  9990
2 65862  53.1583 160.9328 0003582  97.8756 262.2652 15.30238644 28600
STARLINK-35469          
1 65863U 25223K   26097.57053434  .00019975  00000+0  68472-3 0  9997
2 65863  53.1590 160.2982 0001001  72.9321 287.1789 15.30199817 28621
STARLINK-35471          
1 65864U 25223L   26097.46195125  .00000418  00000+0  26255-4 0  9996
2 65864  53.1572 160.3285 0001264  68.5179 291.5957 15.30192865 28613
STARLINK-35475          
1 65865U 25223M   26097.45139692  .00019147  00000+0  65675-3 0  9990
2 65865  53.1578 160.2627 0000480  54.1762 305.9283 15.30207173 28618
